NORAD_CAT_ID,OBJECT_NAME,OBJECT_TYPE,EPOCH,MEAN_MOTION,ECCENTRICITY,INCLINATION,RA_OF_ASC_NODE,ARG_OF_PERICENTER,MEAN_ANOMALY,BSTAR,MEAN_MOTION_DOT,MEAN_MOTION_DDOT,TLE_LINE0,TLE_LINE1,TLE_LINE2,SEMIMAJOR_AXIS,PERIOD,APOGEE,PERIGEE,DECAYED
53886.0,STARLINK-5028,PAYLOAD,2024-08-19 18:09:02,15.08843007,0.0001586,53.2178,349.4174,115.1554,244.9603,-1.5978e-06,-3.13e-06,0.0,0 STARLINK-5028,1 53886U 22119A   24232.75628143 -.00000313  00000-0 -15978-5 0  9998,2 53886  53.2178 349.4174 0001586 115.1554 244.9603 15.08843007105675,6917.871,95.437,540.833,538.639,0.0
53886.0,STARLINK-5028,PAYLOAD,2024-08-20 13:13:40,15.08847408,0.0001486,53.2185,345.8513,100.0132,260.1027,-7.8655e-05,-1.54e-05,0.0,0 STARLINK-5028,1 53886U 22119A   24233.55116128 -.00001540  00000-0 -78655-4 0  9995,2 53886  53.2185 345.8513 0001486 100.0132 260.1027 15.08847408106214,6917.858,95.437,540.751,538.695,0.0
53886.0,STARLINK-5028,PAYLOAD,2024-08-21 13:04:28,15.08835528,0.0001395,53.218,341.394,67.0568,293.0571,-3.1397e-05,-7.88e-06,0.0,0 STARLINK-5028,1 53886U 22119A   24234.54477375 -.00000788  00000-0 -31397-4 0  9994,2 53886  53.2180 341.3940 0001395  67.0568 293.0571 15.08835528105946,6917.894,95.438,540.724,538.794,0.0
53886.0,STARLINK-5028,PAYLOAD,2024-08-21 14:39:51,15.08827872,0.0001234,53.2183,341.0898,94.0973,266.016,6.9516e-05,8.18e-06,0.0,0 STARLINK-5028,1 53886U 22119A   24234.61101331  .00000818  00000-0  69516-4 0  9994,2 53886  53.2183 341.0898 0001234  94.0973 266.0160 15.08827872106375,6917.917,95.438,540.636,538.929,0.0
53886.0,STARLINK-5028,PAYLOAD,2024-08-21 19:26:00,15.0883473,0.0001421,53.216,340.1985,118.5008,241.6128,7.7358e-05,9.43e-06,0.0,0 STARLINK-5028,1 53886U 22119A   24234.80972923  .00000943  00000-0  77358-4 0  9990,2 53886  53.2160 340.1985 0001421 118.5008 241.6128 15.08834730106404,6917.896,95.438,540.745,538.778,0.0
